IRIDIUM 36              
1 24967U 97056C   24170.51635094  .00000628  00000+0  20599-3 0  9995
2 24967  86.3962 325.7352 0002298  93.0931 267.0529 14.36848772399986
IRIDIUM 39              
1 25042U 97069D   24170.59828747  .00000814  00000+0  21333-3 0  9995
2 25042  86.3922   6.9482 0020460  80.9820 279.3698 14.48007074396325
IRIDIUM 38              
1 25043U 97069E   24170.59302723  .00000526  00000+0  16990-3 0  9990
2 25043  86.3967  26.0733 0001845 139.4381 220.6954 14.37299832393712
IRIDIUM 42              
1 25077U 97077A   24170.57782381  .00000498  00000+0  16611-3 0  9994
2 25077  86.3970  31.8013 0001699  99.2757 260.8632 14.35596326389018
IRIDIUM 44              
1 25078U 97077B   24170.60414305  .00000586  00000+0  18184-3 0  9992
2 25078  86.3963  14.6948 0003566 112.7374 247.4202 14.39437280391382
IRIDIUM 45              
1 25104U 97082A   24170.61451485  .00010265  00000+0  57323-3 0  9992
2 25104  86.3751 221.5777 0156836 233.5331 125.1366 15.03398982397072
IRIDIUM 24              
1 25105U 97082B   24170.55179052  .00000622  00000+0  18644-3 0  9992
2 25105  86.3923 234.2925 0011135 187.6514 172.4518 14.41223097390829
IRIDIUM 51              
1 25262U 98018A   24170.56971376  .00018537  00000+0  84586-3 0  9998
2 25262  86.3982 231.4155 0145405 176.8719 183.3467 15.11431148391626
